[{"OBJECT_NAME":"IRIDIUM 114","OBJECT_ID":"2017-003G","EPOCH":"2026-03-09T17:25:34.142304","MEAN_MOTION":14.34217503,"ECCENTRICITY":0.00021341,"INCLINATION":86.3979,"RA_OF_ASC_NODE":130.0546,"ARG_OF_PERICENTER":90.4305,"MEAN_ANOMALY":269.7135,"EPHEMERIS_TYPE":0,"CLASSIFICATION_TYPE":"U","NORAD_CAT_ID":41923,"ELEMENT_SET_NO":999,"REV_AT_EPOCH":47899,"BSTAR":9.4657235e-5,"MEAN_MOTION_DOT":2.85e-6,"MEAN_MOTION_DDOT":0},{"OBJECT_NAME":"FENGYUN 1C DEB","OBJECT_ID":"1999-025BUK","EPOCH":"2026-03-02T14:00:23.009760","MEAN_MOTION":14.24148099,"ECCENTRICITY":0.0231482,"INCLINATION":98.9795,"RA_OF_ASC_NODE":109.6925,"ARG_OF_PERICENTER":125.0525,"MEAN_ANOMALY":237.2607,"EPHEMERIS_TYPE":0,"CLASSIFICATION_TYPE":"U","NORAD_CAT_ID":31447,"ELEMENT_SET_NO":999,"REV_AT_EPOCH":65988,"BSTAR":0.00023507,"MEAN_MOTION_DOT":6.65e-6,"MEAN_MOTION_DDOT":0}]
